NORAD_CAT_ID,OBJECT_NAME,OBJECT_TYPE,EPOCH,MEAN_MOTION,ECCENTRICITY,INCLINATION,RA_OF_ASC_NODE,ARG_OF_PERICENTER,MEAN_ANOMALY,BSTAR,MEAN_MOTION_DOT,MEAN_MOTION_DDOT,TLE_LINE0,TLE_LINE1,TLE_LINE2,SEMIMAJOR_AXIS,PERIOD,APOGEE,PERIGEE,DECAYED
51721.0,STARLINK-3524,PAYLOAD,2024-07-01 05:35:39,15.08846528,0.0001414,53.2143,216.5105,100.0494,260.0657,4.385e-05,4.1e-06,0.0,0 STARLINK-3524,1 51721U 22016H   24183.23309816  .00000410  00000-0  43850-4 0  9996,2 51721  53.2143 216.5105 0001414 100.0494 260.0657 15.08846528131484,6917.86,95.437,540.704,538.747,0.0
51721.0,STARLINK-3524,PAYLOAD,2024-07-01 08:46:26,15.08845616,0.0001488,53.2154,215.9171,87.9995,272.1167,5.8757e-05,6.47e-06,0.0,0 STARLINK-3524,1 51721U 22016H   24183.36557928  .00000647  00000-0  58757-4 0  9993,2 51721  53.2154 215.9171 0001488  87.9995 272.1167 15.08845616130387,6917.863,95.437,540.758,538.699,0.0
51721.0,STARLINK-3524,PAYLOAD,2024-07-02 05:26:27,15.08841006,0.0001496,53.2153,212.0515,92.5545,267.5619,0.00017592,2.513e-05,0.0,0 STARLINK-3524,1 51721U 22016H   24184.22670143  .00002513  00000-0  17592-3 0  9999,2 51721  53.2153 212.0515 0001496  92.5545 267.5619 15.08841006131636,6917.877,95.437,540.777,538.707,0.0
51721.0,STARLINK-3524,PAYLOAD,2024-07-02 11:47:59,15.08839635,0.0001447,53.2157,210.8623,90.694,269.4218,9.2035e-05,1.177e-05,0.0,0 STARLINK-3524,1 51721U 22016H   24184.49166196  .00001177  00000-0  92035-4 0  9997,2 51721  53.2157 210.8623 0001447  90.6940 269.4218 15.08839635130551,6917.882,95.438,540.748,538.745,0.0
51721.0,STARLINK-3524,PAYLOAD,2024-07-03 05:17:14,15.08835971,0.000137,53.2148,207.5911,89.4886,270.6263,2.0018e-05,3.1e-07,0.0,0 STARLINK-3524,1 51721U 22016H   24185.22030387  .00000031  00000-0  20018-4 0  9991,2 51721  53.2148 207.5911 0001370  89.4886 270.6263 15.08835971131783,6917.893,95.438,540.705,538.81,0.0
51721.0,STARLINK-3524,PAYLOAD,2024-07-03 18:00:19,15.08838159,0.0001332,53.2161,205.2114,88.5037,271.6108,4.8259e-05,4.8e-06,0.0,0 STARLINK-3524,1 51721U 22016H   24185.75022399  .00000480  00000-0  48259-4 0  9998,2 51721  53.2161 205.2114 0001332  88.5037 271.6108 15.08838159130749,6917.886,95.438,540.672,538.83,0.0
51721.0,STARLINK-3524,PAYLOAD,2024-07-04 09:54:10,15.08840743,0.0001293,53.216,202.2384,89.4514,270.6626,0.00010189,1.334e-05,0.0,0 STARLINK-3524,1 51721U 22016H   24186.41262119  .00001334  00000-0  10189-3 0  9997,2 51721  53.2160 202.2384 0001293  89.4514 270.6626 15.08840743131961,6917.878,95.438,540.638,538.849,0.0
51721.0,STARLINK-3524,PAYLOAD,2024-07-04 17:51:06,15.08841071,0.0001291,53.216,200.7516,88.8622,271.2518,9.6522e-05,1.249e-05,0.0,0 STARLINK-3524,1 51721U 22016H   24186.74382090  .00001249  00000-0  96522-4 0  9995,2 51721  53.2160 200.7516 0001291  88.8622 271.2518 15.08841071130895,6917.877,95.437,540.635,538.849,0.0
51721.0,STARLINK-3524,PAYLOAD,2024-07-05 04:58:48,15.08834946,0.0001354,53.2166,198.671,94.5787,265.536,7.2587e-05,8.67e-06,0.0,0 STARLINK-3524,1 51721U 22016H   24187.20750659  .00000867  00000-0  72587-4 0  9997,2 51721  53.2166 198.6710 0001354  94.5787 265.5360 15.08834946132085,6917.896,95.438,540.698,538.824,0.0
51721.0,STARLINK-3524,PAYLOAD,2024-07-05 09:44:57,15.08836792,0.000133,53.2163,197.7785,94.6955,265.4189,7.8412e-05,9.6e-06,0.0,0 STARLINK-3524,1 51721U 22016H   24187.40622547  .00000960  00000-0  78412-4 0  9990,2 51721  53.2163 197.7785 0001330  94.6955 265.4189 15.08836792130993,6917.89,95.438,540.675,538.835,0.0
51721.0,STARLINK-3524,PAYLOAD,2024-07-05 17:41:53,15.08840962,0.0001307,53.2163,196.2915,93.1916,266.9226,8.9705e-05,1.14e-05,0.0,0 STARLINK-3524,1 51721U 22016H   24187.73742277  .00001140  00000-0  89705-4 0  9997,2 51721  53.2163 196.2915 0001307  93.1916 266.9226 15.08840962131046,6917.877,95.437,540.647,538.838,0.0
51721.0,STARLINK-3524,PAYLOAD,2024-07-06 09:35:44,15.08841145,0.0001336,53.2165,193.3179,94.5837,265.5308,2.935e-05,1.79e-06,0.0,0 STARLINK-3524,1 51721U 22016H   24188.39982401  .00000179  00000-0  29350-4 0  9996,2 51721  53.2165 193.3179 0001336  94.5837 265.5308 15.08841145132262,6917.877,95.437,540.666,538.818,0.0
51721.0,STARLINK-3524,PAYLOAD,2024-07-06 17:32:40,15.08842587,0.0001312,53.2163,191.8308,91.9048,268.2094,2.8893e-05,1.72e-06,0.0,0 STARLINK-3524,1 51721U 22016H   24188.73102204  .00000172  00000-0  28893-4 0  9993,2 51721  53.2163 191.8308 0001312  91.9048 268.2094 15.08842587131190,6917.872,95.437,540.645,538.83,0.0
51721.0,STARLINK-3524,PAYLOAD,2024-07-07 07:51:08,15.08840857,0.0001301,53.2161,189.1544,92.3339,267.7802,6.1268e-05,6.87e-06,0.0,0 STARLINK-3524,1 51721U 22016H   24189.32718240  .00000687  00000-0  61268-4 0  9996,2 51721  53.2161 189.1544 0001301  92.3339 267.7802 15.08840857131285,6917.878,95.438,540.643,538.843,0.0
51721.0,STARLINK-3524,PAYLOAD,2024-07-08 04:31:09,15.08839646,0.000136,53.2164,185.2891,90.7197,269.3951,5.7261e-05,6.24e-06,0.0,0 STARLINK-3524,1 51721U 22016H   24190.18830330  .00000624  00000-0  57261-4 0  9996,2 51721  53.2164 185.2891 0001360  90.7197 269.3951 15.08839646132535,6917.881,95.438,540.687,538.806,0.0
51721.0,STARLINK-3524,PAYLOAD,2024-07-08 09:17:18,15.08841013,0.0001298,53.216,184.3968,92.9766,267.1374,5.0285e-05,5.13e-06,0.0,0 STARLINK-3524,1 51721U 22016H   24190.38702223  .00000513  00000-0  50285-4 0  9993,2 51721  53.2160 184.3968 0001298  92.9766 267.1374 15.08841013131447,6917.877,95.437,540.64,538.844,0.0
51721.0,STARLINK-3524,PAYLOAD,2024-07-08 17:14:14,15.08841949,0.0001284,53.2158,182.9099,92.438,267.6759,4.4917e-05,4.27e-06,0.0,0 STARLINK-3524,1 51721U 22016H   24190.71822162  .00000427  00000-0  44917-4 0  9994,2 51721  53.2158 182.9099 0001284  92.4380 267.6759 15.08841949131490,6917.874,95.437,540.628,538.851,0.0
51721.0,STARLINK-3524,PAYLOAD,2024-07-09 09:08:05,15.08840406,0.0001351,53.2161,179.9366,92.7493,267.3654,3.8127e-05,3.19e-06,0.0,0 STARLINK-3524,1 51721U 22016H   24191.38062275  .00000319  00000-0  38127-4 0  9995,2 51721  53.2161 179.9366 0001351  92.7493 267.3654 15.08840406132714,6917.879,95.438,540.679,538.81,0.0
51721.0,STARLINK-3524,PAYLOAD,2024-07-10 08:58:53,15.08835079,0.0001341,53.216,175.4756,93.781,266.3335,-2.3786e-06,-3.26e-06,0.0,0 STARLINK-3524,1 51721U 22016H   24192.37422842 -.00000326  00000-0 -23786-5 0  9991,2 51721  53.2160 175.4756 0001341  93.7810 266.3335 15.08835079132861,6917.895,95.438,540.688,538.833,0.0
51721.0,STARLINK-3524,PAYLOAD,2024-07-11 04:03:31,15.08834419,0.0001311,53.2161,171.9067,92.4713,267.6429,2.9604e-05,1.83e-06,0.0,0 STARLINK-3524,1 51721U 22016H   24193.16910987  .00000183  00000-0  29604-4 0  9994,2 51721  53.2161 171.9067 0001311  92.4713 267.6429 15.08834419131867,6917.897,95.438,540.669,538.856,0.0
51721.0,STARLINK-3524,PAYLOAD,2024-07-12 05:29:41,15.08837352,0.0001227,53.216,167.1495,92.3557,267.7575,7.7806e-05,9.51e-06,0.0,0 STARLINK-3524,1 51721U 22016H   24194.22894938  .00000951  00000-0  77806-4 0  9999,2 51721  53.2160 167.1495 0001227  92.3557 267.7575 15.08837352133144,6917.888,95.438,540.602,538.905,0.0
51721.0,STARLINK-3524,PAYLOAD,2024-07-12 08:40:27,15.08838237,0.0001232,53.2161,166.5546,91.6789,268.4344,8.3505e-05,1.041e-05,0.0,0 STARLINK-3524,1 51721U 22016H   24194.36142893  .00001041  00000-0  83505-4 0  9994,2 51721  53.2161 166.5546 0001232  91.6789 268.4344 15.08838237132043,6917.886,95.438,540.603,538.898,0.0
51721.0,STARLINK-3524,PAYLOAD,2024-07-12 15:01:59,15.08845536,0.0001321,53.217,165.3661,94.1594,265.9549,0.00012346,1.678e-05,0.0,0 STARLINK-3524,1 51721U 22016H   24194.62638343  .00001678  00000-0  12346-3 0  9993,2 51721  53.2170 165.3661 0001321  94.1594 265.9549 15.08845536133207,6917.863,95.437,540.642,538.815,0.0
51721.0,STARLINK-3524,PAYLOAD,2024-07-13 05:20:28,15.08836141,0.0001373,53.2165,162.6889,87.875,272.2399,4.611e-05,4.46e-06,0.0,0 STARLINK-3524,1 51721U 22016H   24195.22255371  .00000446  00000-0  46110-4 0  9995,2 51721  53.2165 162.6889 0001373  87.8750 272.2399 15.08836141133298,6917.892,95.438,540.707,538.807,0.0
51721.0,STARLINK-3524,PAYLOAD,2024-07-13 06:55:51,15.08837381,0.0001428,53.2169,162.3918,91.1808,268.9348,5.9229e-05,6.55e-06,0.0,0 STARLINK-3524,1 51721U 22016H   24195.28879279  .00000655  00000-0  59229-4 0  9997,2 51721  53.2169 162.3918 0001428  91.1808 268.9348 15.08837381132185,6917.888,95.438,540.741,538.766,0.0
51721.0,STARLINK-3524,PAYLOAD,2024-07-13 14:52:46,15.08845138,0.0001476,53.2171,160.9048,81.7565,278.3594,0.00010496,1.383e-05,0.0,0 STARLINK-3524,1 51721U 22016H   24195.61998727  .00001383  00000-0  10496-3 0  9995,2 51721  53.2171 160.9048 0001476  81.7565 278.3594 15.08845138133351,6917.865,95.437,540.751,538.709,0.0
51721.0,STARLINK-3524,PAYLOAD,2024-07-14 05:11:15,15.08837859,0.0001456,53.2173,158.2295,86.3645,273.7513,7.8049e-06,-1.64e-06,0.0,0 STARLINK-3524,1 51721U 22016H   24196.21615613 -.00000164  00000-0  78049-5 0  9999,2 51721  53.2173 158.2295 0001456  86.3645 273.7513 15.08837859133446,6917.887,95.438,540.759,538.745,0.0
51721.0,STARLINK-3524,PAYLOAD,2024-07-15 03:26:39,15.08842724,0.0001423,53.2165,154.0696,94.7704,265.345,0.00014663,2.047e-05,0.0,0 STARLINK-3524,1 51721U 22016H   24197.14351036  .00002047  00000-0  14663-3 0  9999,2 51721  53.2165 154.0696 0001423  94.7704 265.3450 15.08842724133588,6917.872,95.437,540.721,538.753,0.0
51721.0,STARLINK-3524,PAYLOAD,2024-07-15 14:34:20,15.08855145,0.0001299,53.2161,151.9853,106.1195,253.994,0.00018041,2.586e-05,0.0,0 STARLINK-3524,1 51721U 22016H   24197.60718039  .00002586  00000-0  18041-3 0  9992,2 51721  53.2161 151.9853 0001299 106.1195 253.9940 15.08855145132530,6917.834,95.437,540.598,538.8,0.0
51721.0,STARLINK-3524,PAYLOAD,2024-07-16 03:17:26,15.08831811,0.0001113,53.2152,149.6067,84.6535,275.4584,4.6943e-05,4.59e-06,0.0,0 STARLINK-3524,1 51721U 22016H   24198.13711696  .00000459  00000-0  46943-4 0  9993,2 51721  53.2152 149.6067 0001113  84.6535 275.4584 15.08831811133734,6917.905,95.438,540.54,539.0,0.0
